{"fetched_at":"2026-04-01T16:59:04Z","count":11445,"tles":[{"name":"STARLINK-36237","line1":"1 68337U 26059S   26090.66668981 -.00866364  00000+0 -47087-2 0  9998","line2":"2 68337  53.1593 252.6114 0001000  67.9776 208.6764 15.81486973  2578","category":"Starlink"}]}