{
  "norad_id": 68337,
  "name": "STARLINK-36237",
  "history": [
    {
      "epoch": "2026-03-31T16:00:01.999584Z",
      "apogee_km": 326.90530990102707,
      "perigee_km": 325.5644355264849,
      "latitude_deg": -52.8061279622615,
      "longitude_deg": 104.537481474078,
      "height_km": 345.1470166397085,
      "semi_major_axis_km": 6704.371872713756,
      "eccentricity": 0.0001,
      "inclination_deg": 53.1593,
      "raan_deg": 252.6114,
      "arg_perigee_deg": 67.9776,
      "mean_anomaly_deg": 208.6764,
      "mean_motion_rev_day": 15.81486973
    }
  ]
}